OBJECT_NAME,OBJECT_ID,EPOCH,MEAN_MOTION,ECCENTRICITY,INCLINATION,RA_OF_ASC_NODE,ARG_OF_PERICENTER,MEAN_ANOMALY,EPHEMERIS_TYPE,CLASSIFICATION_TYPE,NORAD_CAT_ID,ELEMENT_SET_NO,REV_AT_EPOCH,BSTAR,MEAN_MOTION_DOT,MEAN_MOTION_DDOT
CUTE-1 (CO-55),2003-031E,2026-05-11T22:18:20.635200,14.24312642,.00083691,98.6747,140.9437,293.9469,66.0833,0,U,27844,999,18651,.10139468E-3,.19E-5,0
CUBESAT XI-IV (CO-57),2003-031J,2026-05-11T23:16:48.501120,14.23600890,.0008525,98.6780,140.7254,314.7788,45.2696,0,U,27848,999,18622,.92942547E-4,.168E-5,0
CUBESAT XI-V,2005-043F,2026-05-12T04:27:44.766720,14.72534334,.00131914,98.2945,287.0624,323.9140,36.1175,0,U,28895,999,9645,.14114456E-3,.845E-5,0
CUTE-1.7+APD II (CO-65),2008-021C,2026-05-12T05:57:46.795392,15.09102397,.00099991,97.8259,112.9345,142.2539,217.9392,0,U,32785,999,97977,.17599071E-3,.2725E-4,0
CANX-2,2008-021H,2026-05-12T04:44:12.925248,15.05356948,.00110921,97.8627,111.2888,155.8166,204.3583,0,U,32790,999,97939,.15055964E-3,.2094E-4,0
SEEDS II (CO-66),2008-021J,2026-05-11T22:51:29.780928,15.31496475,.000504,97.7527,128.1593,86.4722,273.7094,0,U,32791,999,98174,.38169434E-3,.11536E-3,0
SWISSCUBE,2009-051B,2026-05-12T05:57:59.624928,14.62409745,.00062545,98.4058,39.5092,336.3034,23.7877,0,U,35932,999,88390,.13145412E-3,.616E-5,0
BEESAT-1,2009-051C,2026-05-12T04:06:16.993728,14.61659504,.00051048,98.3987,39.1406,354.7660,5.3486,0,U,35933,999,88392,.11158385E-3,.506E-5,0
ITUPSAT1,2009-051E,2026-05-12T04:46:31.157472,14.60384459,.0007512,98.4072,38.3987,1.1749,358.9467,0,U,35935,999,88348,.10628796E-3,.466E-5,0
TISAT 1,2010-035E,2026-05-12T02:29:37.032576,15.30319327,.00036115,98.0692,75.4988,54.6432,305.5143,0,U,36799,999,86218,.44152499E-3,.12873E-3,0
AEROCUBE 4.5A,2012-048K,2026-05-12T07:44:53.725920,15.77666832,.00192643,64.6292,156.1009,217.0014,142.9812,0,U,38767,999,36697,.66036088E-3,.113623E-2,0
STRAND-1,2013-009E,2026-05-12T06:29:01.170816,14.37141449,.00082394,98.3916,313.3903,346.6672,13.4296,0,U,39090,999,69190,.75038113E-4,.18E-5,0
BRITE-AUSTRIA,2013-009F,2026-05-12T06:25:21.829728,14.36527334,.00099851,98.3988,312.5942,354.5452,5.5624,0,U,39091,999,69189,.5163908E-4,.109E-5,0
NEE-01 PEGASO,2013-018B,2026-05-11T21:17:39.283872,14.93480823,.0011183,98.1175,274.8535,285.1037,74.8945,0,U,39151,999,70528,.17871E-3,.182E-4,0
POPACS 2,2013-055E,2026-05-11T14:18:18.338976,14.90383682,.0419365,80.9931,186.0535,311.5041,45.0875,0,U,39269,999,65776,.158E-3,.9204E-4,0
POPACS 3,2013-055F,2026-05-12T02:25:14.784384,14.55228363,.05549368,81.0002,268.2855,179.7327,180.4287,0,U,39270,999,63330,.27559079E-3,.11526E-3,0
ZACUBE-1 (TSHEPISOSAT),2013-066B,2026-05-12T03:26:32.725248,15.00904333,.00419841,97.8118,94.2849,14.4700,345.7715,0,U,39417,999,67532,.23293779E-3,.2957E-4,0
WNISAT-1,2013-066H,2026-05-11T21:47:16.831680,14.58016999,.0162771,97.7158,283.6487,346.6812,13.0116,0,U,39423,999,66144,.61363E-4,.287E-5,0
TRITON-1,2013-066M,2026-05-12T07:11:40.892640,14.81544980,.00902281,97.8260,42.9240,352.3958,7.5880,0,U,39427,999,66877,.22189416E-3,.181E-4,0
GOMX-1,2013-066Q,2026-05-12T07:09:47.087424,14.69315493,.01283867,97.6514,335.0241,192.1438,167.6667,0,U,39430,999,66464,.1787583E-3,.1145E-4,0
CUBEBUG-2 (LO-74),2013-066AA,2026-05-12T02:06:25.587360,14.93488953,.00588061,97.8889,80.9276,145.6360,214.8685,0,U,39440,999,67160,.18206455E-3,.192E-4,0
NEE-02 KRYSAOR,2013-066AB,2026-05-12T06:21:11.313792,14.86481886,.00660017,97.8881,71.7440,186.2135,173.8270,0,U,39441,999,67086,.11292534E-3,.979E-5,0
FUNCUBE-1 (AO-73),2013-066AE,2026-05-12T06:06:35.000064,15.09015544,.00354968,97.8259,102.9681,328.8307,31.0815,0,U,39444,999,67424,.31892281E-3,.5049E-4,0
UWE-3,2013-066AG,2026-05-11T20:24:49.072608,14.96716038,.00509509,97.8679,87.6953,80.9232,279.7749,0,U,39446,999,67214,.17104713E-3,.1943E-4,0
BRITE-CA1 (TORONTO),2014-033L,2026-05-12T07:09:53.702208,14.72626838,.00793359,97.9687,261.8998,32.7324,327.8764,0,U,40020,999,63693,.76566085E-4,.459E-5,0
DUCHIFAT-1,2014-033M,2026-05-12T03:00:31.313088,15.58226206,.00058006,98.0509,186.4226,189.1310,170.9839,0,U,40021,999,65012,.67126926E-3,.5087E-3,0
NANOSATC-BR1,2014-033Q,2026-05-12T01:24:12.152736,15.30297181,.00019896,98.0758,161.2762,331.9616,28.1515,0,U,40024,999,64845,.34112784E-3,.9914E-4,0
QB50P1,2014-033R,2026-05-12T06:57:37.442016,15.17692585,.0008445,98.0983,140.9348,1.2823,358.8429,0,U,40025,999,64758,.27197E-3,.5409E-4,0
QB50P2,2014-033Y,2026-05-12T05:36:46.512288,15.14689804,.0005855,98.0756,126.8919,306.0216,54.0472,0,U,40032,999,64722,.20989362E-3,.3811E-4,0
PERSEUS-M2,2014-033AD,2026-05-12T06:22:59.032992,14.95394509,.00131397,97.9936,82.0832,62.0117,298.2431,0,U,40037,999,64541,.10465246E-3,.1096E-4,0
